IRIDIUM 112             
1 41925U 17003J   24154.21507187  .00000315  00000+0  10526-3 0  9994
2 41925  86.3989  39.6277 0002309  82.4507 277.6950 14.34217123386494
IRIDIUM 111             
1 41926U 17003K   24154.69076476  .00000146  00000+0  45110-4 0  9999
2 41926  86.3988  39.4833 0001981  80.0510 280.0909 14.34218929386546
IRIDIUM 113             
1 42803U 17039A   24154.74049916  .00000049  00000+0  10447-4 0  9995
2 42803  86.3960 273.2217 0001992  91.9665 268.1759 14.34218437364482
IRIDIUM 123             
1 42804U 17039B   24154.50290314  .00000107  00000+0  31011-4 0  9995
2 42804  86.3946 304.8370 0001966  88.7508 271.3913 14.34218559363212
IRIDIUM 120             
1 42805U 17039C   24154.73415749  .00000255  00000+0  83885-4 0  9992
2 42805  86.3950 273.1038 0002162  92.5412 267.6031 14.34217738364479
IRIDIUM 115             
1 42806U 17039D   24154.78269977  .00000580  00000+0  16639-3 0  9991
2 42806  86.4488 273.1056 0001941  87.8375 272.3048 14.43283776366890
IRIDIUM 118             
1 42807U 17039E   24154.46484748  .00000316  00000+0  10574-3 0  9991
2 42807  86.3946 304.8543 0002357  91.4615 268.6851 14.34218794363202
IRIDIUM 117             
1 42808U 17039F   24154.48387202  .00000049  00000+0  10285-4 0  9994
2 42808  86.3944 304.8106 0001887  92.2281 267.9131 14.34215633363236
